[{"OBJECT_NAME":"EXO-0","OBJECT_ID":"2023-174DK","EPOCH":"2026-03-09T17:03:04.419648","MEAN_MOTION":15.32821991,"ECCENTRICITY":0.00098779,"INCLINATION":97.3864,"RA_OF_ASC_NODE":148.9039,"ARG_OF_PERICENTER":157.1125,"MEAN_ANOMALY":203.0559,"EPHEMERIS_TYPE":0,"CLASSIFICATION_TYPE":"U","NORAD_CAT_ID":59175,"ELEMENT_SET_NO":999,"REV_AT_EPOCH":12979,"BSTAR":0.00036716083,"MEAN_MOTION_DOT":0.00011582,"MEAN_MOTION_DDOT":0},{"OBJECT_NAME":"STARLINK-36111","OBJECT_ID":"2025-286AB","EPOCH":"2026-03-09T22:50:33.922464","MEAN_MOTION":15.30214257,"ECCENTRICITY":0.0001172,"INCLINATION":53.1599,"RA_OF_ASC_NODE":357.4598,"ARG_OF_PERICENTER":96.2326,"MEAN_ANOMALY":263.8808,"EPHEMERIS_TYPE":0,"CLASSIFICATION_TYPE":"U","NORAD_CAT_ID":66950,"ELEMENT_SET_NO":999,"REV_AT_EPOCH":1545,"BSTAR":0.0010264143,"MEAN_MOTION_DOT":0.00030177,"MEAN_MOTION_DDOT":0}]
